NORAD_CAT_ID,OBJECT_NAME,OBJECT_TYPE,EPOCH,MEAN_MOTION,ECCENTRICITY,INCLINATION,RA_OF_ASC_NODE,ARG_OF_PERICENTER,MEAN_ANOMALY,BSTAR,MEAN_MOTION_DOT,MEAN_MOTION_DDOT,TLE_LINE0,TLE_LINE1,TLE_LINE2,SEMIMAJOR_AXIS,PERIOD,APOGEE,PERIGEE,DECAYED
50183.0,STARLINK-3281,PAYLOAD,2022-02-23 14:00:01,15.50151311,0.0001321,53.2173,35.208,49.3657,8.9543,-0.012426,-0.00655704,0.0,0 STARLINK-3281,1 50183U 21125AD  22054.58334491 -.00655704  00000-0 -12426-1 0  9993,2 50183  53.2173  35.2080 0001321  49.3657   8.9543 15.50151311  3712,6794.420999999999,92.894,417.1830000000001,415.388,0.0
50183.0,STARLINK-3281,PAYLOAD,2022-02-23 22:00:00,15.49684738,0.0001583,53.2175,33.6158,42.2993,76.9686,-0.012621,-0.00655116,0.0,0 STARLINK-3281,1 50183U 21125AD  22054.91667824 -.00655116  00000-0 -12621-1 0  9993,2 50183  53.2175  33.6158 0001583  42.2993  76.9686 15.49684738  3712,6795.785,92.922,418.725,416.574,0.0
50183.0,STARLINK-3281,PAYLOAD,2022-02-24 14:00:01,15.48753151,0.0001371,53.2173,30.4385,62.399,177.081,-0.013116,-0.006584,0.0,0 STARLINK-3281,1 50183U 21125AD  22055.58334491 -.00658400  00000-0 -13116-1 0  9997,2 50183  53.2173  30.4385 0001371  62.3990 177.0810 15.48753151  3685,6798.509,92.978,421.307,419.442,0.0
50183.0,STARLINK-3281,PAYLOAD,2022-02-24 22:00:00,15.48284205,0.0001479,53.2176,28.8498,49.1897,249.5569,-0.01322,-0.00653201,0.0,0 STARLINK-3281,1 50183U 21125AD  22055.91667824 -.00653201  00000-0 -13220-1 0  9993,2 50183  53.2176  28.8498 0001479  49.1897 249.5569 15.48284205  3676,6799.882,93.006,422.753,420.741,0.0
50183.0,STARLINK-3281,PAYLOAD,2022-02-25 06:00:00,15.47820107,0.0001503,53.2175,27.2656,43.6598,313.7898,-0.0135539999999999,-0.00658436,0.0,0 STARLINK-3281,1 50183U 21125AD  22056.25001157 -.00658436  00000-0 -13554-1 0  9997,2 50183  53.2175  27.2656 0001503  43.6598 313.7898 15.47820107 11011,6801.241,93.034,424.129,422.084,0.0
50183.0,STARLINK-3281,PAYLOAD,2022-02-25 14:00:01,15.47352204,0.0001256,53.2174,25.6792,55.0446,0.5504,-0.013719,-0.0065581,0.0,0 STARLINK-3281,1 50183U 21125AD  22056.58334491 -.00655810  00000-0 -13719-1 0  9999,2 50183  53.2174  25.6792 0001256  55.0446   0.5504 15.47352204  3684,6802.611999999999,93.062,425.332,423.62300000000016,0.0
50183.0,STARLINK-3281,PAYLOAD,2022-02-25 22:00:00,15.46884768,0.0001525,53.2177,24.0941,45.7026,67.4767,-0.013895,-0.00653702,0.0,0 STARLINK-3281,1 50183U 21125AD  22056.91667824 -.00653702  00000-0 -13895-1 0  9998,2 50183  53.2177  24.0941 0001525  45.7026  67.4767 15.46884768  3693,6803.983,93.09,426.885,424.81,0.0
50183.0,STARLINK-3281,PAYLOAD,2022-02-26 14:00:01,15.45953938,0.0001515,53.2174,20.9297,53.4565,173.207,-0.01446,-0.00658264,0.0,0 STARLINK-3281,1 50183U 21125AD  22057.58334491 -.00658264  00000-0 -14460-1 0  9990,2 50183  53.2174  20.9297 0001515  53.4565 173.2070 15.45953938 11228,6806.714,93.146,429.61,427.547,0.0
50183.0,STARLINK-3281,PAYLOAD,2022-02-26 22:00:00,15.45485685,0.0001543,53.2177,19.3482,48.395,234.1709,-0.014594,-0.00654068,0.0,0 STARLINK-3281,1 50183U 21125AD  22057.91667824 -.00654068  00000-0 -14594-1 0  9992,2 50183  53.2177  19.3482 0001543  48.3950 234.1709 15.45485685  3698,6808.0880000000025,93.175,431.004,428.903,0.0
50183.0,STARLINK-3281,PAYLOAD,2022-02-27 14:00:01,15.44552828,0.0001357,53.2175,16.1906,48.5374,344.1499,-0.015114,-0.00655823,0.0,0 STARLINK-3281,1 50183U 21125AD  22058.58334491 -.00655823  00000-0 -15114-1 0  9996,2 50183  53.2175  16.1906 0001357  48.5374 344.1499 15.44552828  3687,6810.829000000002,93.231,433.619,431.77,0.0
50183.0,STARLINK-3281,PAYLOAD,2022-02-27 22:00:00,15.44085005,0.0001571,53.2175,14.6126,41.1655,45.7422,-0.01529,-0.00653188,0.0,0 STARLINK-3281,1 50183U 21125AD  22058.91667824 -.00653188  00000-0 -15290-1 0  9999,2 50183  53.2175  14.6126 0001571  41.1655  45.7422 15.44085005 11433,6812.205,93.259,435.14,433.0,0.0
50183.0,STARLINK-3281,PAYLOAD,2022-02-28 14:00:01,15.43153752,0.0001506999999999,53.2174,11.4613,53.3849,140.2795,-0.015863,-0.00664159,0.0,0 STARLINK-3281,1 50183U 21125AD  22059.58334491 -.00664159  00000-0 -15863-1 0  9990,2 50183  53.2174  11.4613 0001507  53.3849 140.2795 15.43153752  3683,6814.945,93.315,437.837,435.783,0.0
50183.0,STARLINK-3281,PAYLOAD,2022-02-28 22:00:00,15.42685775,0.0001554,53.2174,9.8868,52.5599,193.6429,-0.016038,-0.00661163,0.0,0 STARLINK-3281,1 50183U 21125AD  22059.91667824 -.00661163  00000-0 -16038-1 0  9993,2 50183  53.2174   9.8868 0001554  52.5599 193.6429 15.42685775 11589,6816.323,93.344,439.24800000000016,437.129,0.0
50183.0,STARLINK-3281,PAYLOAD,2022-03-01 14:00:01,15.4175389,0.0001294,53.2176,6.7421,54.1814,295.4151,-0.016634,-0.00664284,0.0,0 STARLINK-3281,1 50183U 21125AD  22060.58334491 -.00664284  00000-0 -16634-1 0  9998,2 50183  53.2176   6.7421 0001294  54.1814 295.4151 15.41753890  3678,6819.07,93.4,441.817,440.052,0.0
50183.0,STARLINK-3281,PAYLOAD,2022-03-01 22:00:01,15.41286955,0.0001468,53.2175,5.1712,45.3546,355.1621,-0.0168639999999999,-0.00663122,0.0,0 STARLINK-3281,1 50183U 21125AD  22060.91668981 -.00663122  00000-0 -16864-1 0  9994,2 50183  53.2175   5.1712 0001468  45.3546 355.1621 15.41286955 11746,6820.446999999999,93.428,443.31300000000016,441.311,0.0
50183.0,STARLINK-3281,PAYLOAD,2022-03-02 14:00:01,15.40352053,0.0001506,53.2175,2.0329,49.7054,90.7778,-0.017311,-0.00660033,0.0,0 STARLINK-3281,1 50183U 21125AD  22061.58334491 -.00660033  00000-0 -17311-1 0  9990,2 50183  53.2175   2.0329 0001506  49.7054  90.7778 15.40352053  3660,6823.206,93.485,446.099,444.044,0.0
50183.0,STARLINK-3281,PAYLOAD,2022-03-02 22:00:00,15.39885414,0.0001756,53.2177,0.4656,43.5553,146.1019,-0.0175759999999999,-0.00659882,0.0,0 STARLINK-3281,1 50183U 21125AD  22061.91667824 -.00659882  00000-0 -17576-1 0  9999,2 50183  53.2177   0.4656 0001756  43.5553 146.1019 15.39885414  3675,6824.585,93.513,447.648,445.251,0.0
50183.0,STARLINK-3281,PAYLOAD,2022-03-03 06:00:00,15.39416387,0.0001491,53.2176,358.9007,56.9972,181.2734,-0.01773,-0.00655684,0.0,0 STARLINK-3281,1 50183U 21125AD  22062.25001157 -.00655684  00000-0 -17730-1 0  9996,2 50183  53.2176 358.9007 0001491  56.9972 181.2734 15.39416387 11946,6825.971,93.542,448.854,446.818,0.0
50183.0,STARLINK-3281,PAYLOAD,2022-03-03 14:00:01,15.38953502,0.0001579,53.2177,357.3335,45.2156,241.1076,-0.018188,-0.00661975,0.0,0 STARLINK-3281,1 50183U 21125AD  22062.58334491 -.00661975  00000-0 -18188-1 0  9990,2 50183  53.2177 357.3335 0001579  45.2156 241.1076 15.38953502  3676,6827.34,93.57,450.283,448.127,0.0
50183.0,STARLINK-3281,PAYLOAD,2022-03-03 22:00:00,15.38487633,0.0001595,53.2179,355.7698,41.0147,292.8001,-0.018498,-0.00662952,0.0,0 STARLINK-3281,1 50183U 21125AD  22062.91667824 -.00662952  00000-0 -18498-1 0  9996,2 50183  53.2179 355.7698 0001595  41.0147 292.8001 15.38487633  3672,6828.718000000003,93.598,451.672,449.494,0.0
50183.0,STARLINK-3281,PAYLOAD,2022-03-04 06:00:02,15.38018087,0.000136,53.2176,354.2082,50.8963,329.9143,-0.018638,-0.00658094,0.0,0 STARLINK-3281,1 50183U 21125AD  22063.25002315 -.00658094  00000-0 -18638-1 0  9990,2 50183  53.2176 354.2082 0001360  50.8963 329.9143 15.38018087 12104,6830.108,93.627,452.902,451.044,0.0
50183.0,STARLINK-3281,PAYLOAD,2022-03-04 14:00:01,15.37552188,0.0001486999999999,53.2176,352.6444,42.7264,24.4561,-0.018967,-0.00659503,0.0,0 STARLINK-3281,1 50183U 21125AD  22063.58335648 -.00659503  00000-0 -18967-1 0  9995,2 50183  53.2176 352.6444 0001487  42.7264  24.4561 15.37552188  3679,6831.486999999999,93.655,454.36800000000005,452.336,0.0
50183.0,STARLINK-3281,PAYLOAD,2022-03-04 22:00:00,15.37087254,0.0001804,53.2177,351.0841,36.1825,76.7453,-0.019341,-0.00662237,0.0,0 STARLINK-3281,1 50183U 21125AD  22063.91667824 -.00662237  00000-0 -19341-1 0  9991,2 50183  53.2177 351.0841 0001804  36.1825  76.7453 15.37087254  3674,6832.865,93.684,455.962,453.497,0.0
50183.0,STARLINK-3281,PAYLOAD,2022-03-05 06:00:00,15.36615566,0.0001889,53.2174,349.5256,35.8444,122.3339,-0.019353,-0.00653244,0.0,0 STARLINK-3281,1 50183U 21125AD  22064.25001157 -.00653244  00000-0 -19353-1 0  9991,2 50183  53.2174 349.5256 0001889  35.8444 122.3339 15.36615566 12256,6834.263000000001,93.712,457.419,454.837,0.0
50183.0,STARLINK-3281,PAYLOAD,2022-03-05 14:00:01,15.36151891,0.0001575,53.2175,347.9651,50.0574,152.8099,-0.019792,-0.00657733,0.0,0 STARLINK-3281,1 50183U 21125AD  22064.58334491 -.00657733  00000-0 -19792-1 0  9991,2 50183  53.2175 347.9651 0001575  50.0574 152.8099 15.36151891  3654,6835.638000000001,93.741,458.58,456.427,0.0
50183.0,STARLINK-3281,PAYLOAD,2022-03-05 22:00:01,15.356862699999995,0.0001735,53.2176,346.4083,44.0274,203.0316,-0.020153,-0.00659619,0.0,0 STARLINK-3281,1 50183U 21125AD  22064.91668981 -.00659619  00000-0 -20153-1 0  9990,2 50183  53.2176 346.4083 0001735  44.0274 203.0316 15.35686270  3683,6837.02,93.769,460.071,457.699,0.0
50183.0,STARLINK-3281,PAYLOAD,2022-03-06 06:00:00,15.35218094,0.000145,53.2173,344.853,53.2625,237.2999,-0.020347,-0.00656223,0.0,0 STARLINK-3281,1 50183U 21125AD  22065.25001157 -.00656223  00000-0 -20347-1 0  9997,2 50183  53.2173 344.8530 0001450  53.2625 237.2999 15.35218094 12406,6838.41,93.798,461.266,459.283,0.0
50183.0,STARLINK-3281,PAYLOAD,2022-03-06 14:00:01,15.34751886,0.0001384,53.2175,343.2959,49.678,283.8926,-0.020699,-0.00657556,0.0,0 STARLINK-3281,1 50183U 21125AD  22065.58334491 -.00657556  00000-0 -20699-1 0  9993,2 50183  53.2175 343.2959 0001384  49.6780 283.8926 15.34751886  3668,6839.795,93.826,462.606,460.713,0.0
50183.0,STARLINK-3281,PAYLOAD,2022-03-06 22:00:00,15.34288034,0.000153,53.2177,341.7425,42.6825,333.333,-0.021163,-0.00662074,0.0,0 STARLINK-3281,1 50183U 21125AD  22065.91667824 -.00662074  00000-0 -21163-1 0  9997,2 50183  53.2177 341.7425 0001530  42.6825 333.3330 15.34288034  3667,6841.1730000000025,93.855,464.085,461.991,0.0
